{
  "norad_id": 57910,
  "name": "STARLINK-30453",
  "history": [
    {
      "epoch": "2026-03-28T17:20:41.584992Z",
      "apogee_km": 486.83528558724265,
      "perigee_km": 484.31355801087284,
      "latitude_deg": -5.6901077940586e-05,
      "longitude_deg": 117.28630356133161,
      "height_km": 485.3329389948209,
      "semi_major_axis_km": 6863.7114217990575,
      "eccentricity": 0.0001837,
      "inclination_deg": 43.002,
      "raan_deg": 203.5987,
      "arg_perigee_deg": 270.8565,
      "mean_anomaly_deg": 89.2075,
      "mean_motion_rev_day": 15.26737027
    },
    {
      "epoch": "2026-03-29T07:28:31.521216Z",
      "apogee_km": 487.2640442199463,
      "perigee_km": 483.60781891929946,
      "latitude_deg": -1.1679475431499709e-05,
      "longitude_deg": -98.57363633327806,
      "height_km": 485.23956851504175,
      "semi_major_axis_km": 6863.572931569623,
      "eccentricity": 0.00026635,
      "inclination_deg": 43.0032,
      "raan_deg": 200.2771,
      "arg_perigee_deg": 269.1987,
      "mean_anomaly_deg": 90.8559,
      "mean_motion_rev_day": 15.26783236
    },
    {
      "epoch": "2026-03-30T14:52:45.490944Z",
      "apogee_km": 486.4731251710664,
      "perigee_km": 484.8366599080464,
      "latitude_deg": 1.2377230768757722e-05,
      "longitude_deg": 141.69947164250544,
      "height_km": 485.28717610825396,
      "semi_major_axis_km": 6863.791892539556,
      "eccentricity": 0.00011921,
      "inclination_deg": 43.002,
      "raan_deg": 192.8981,
      "arg_perigee_deg": 280.1757,
      "mean_anomaly_deg": 79.896,
      "mean_motion_rev_day": 15.26710178
    },
    {
      "epoch": "2026-03-30T16:26:57.185376Z",
      "apogee_km": 486.73577563968684,
      "perigee_km": 484.3752145167791,
      "latitude_deg": 4.0719715408295885e-05,
      "longitude_deg": 117.7167010177897,
      "height_km": 485.37471346032623,
      "semi_major_axis_km": 6863.692495078232,
      "eccentricity": 0.00017196,
      "inclination_deg": 43.0026,
      "raan_deg": 192.5285,
      "arg_perigee_deg": 267.9657,
      "mean_anomaly_deg": 92.0998,
      "mean_motion_rev_day": 15.26743342
    },
    {
      "epoch": "2026-03-31T14:25:51.576960Z",
      "apogee_km": 486.7339678813878,
      "perigee_km": 484.3051943635919,
      "latitude_deg": 2.7588752022108252e-05,
      "longitude_deg": 141.92109718327984,
      "height_km": 485.2968468329875,
      "semi_major_axis_km": 6863.656581122489,
      "eccentricity": 0.00017693,
      "inclination_deg": 43.0035,
      "raan_deg": 187.3623,
      "arg_perigee_deg": 270.0095,
      "mean_anomaly_deg": 90.0554,
      "mean_motion_rev_day": 15.26755325
    },
    {
      "epoch": "2026-04-02T15:05:59.707392Z",
      "apogee_km": 486.2821199858763,
      "perigee_km": 482.6292991384307,
      "latitude_deg": -3.375516728039833e-05,
      "longitude_deg": 118.45159547167187,
      "height_km": 484.3788063245921,
      "semi_major_axis_km": 6862.592709562154,
      "eccentricity": 0.00026614,
      "inclination_deg": 43.0035,
      "raan_deg": 175.9255,
      "arg_perigee_deg": 265.445,
      "mean_anomaly_deg": 94.6097,
      "mean_motion_rev_day": 15.27110366
    },
    {
      "epoch": "2026-04-03T14:38:33.760608Z",
      "apogee_km": 484.6695802789027,
      "perigee_km": 482.9074378081805,
      "latitude_deg": 5.764878584479379e-05,
      "longitude_deg": 118.80323661790321,
      "height_km": 483.76203976454457,
      "semi_major_axis_km": 6861.925509043542,
      "eccentricity": 0.0001284,
      "inclination_deg": 43.0025,
      "raan_deg": 170.3858,
      "arg_perigee_deg": 257.101,
      "mean_anomaly_deg": 102.9699,
      "mean_motion_rev_day": 15.27333098
    },
    {
      "epoch": "2026-04-04T14:10:57.777600Z",
      "apogee_km": 484.5598534138071,
      "perigee_km": 482.19811961125015,
      "latitude_deg": -3.8756978333097877e-05,
      "longitude_deg": 119.19450878307367,
      "height_km": 484.1758656068267,
      "semi_major_axis_km": 6861.515986512529,
      "eccentricity": 0.0001721,
      "inclination_deg": 43.0027,
      "raan_deg": 164.844,
      "arg_perigee_deg": 210.2122,
      "mean_anomaly_deg": 149.863,
      "mean_motion_rev_day": 15.27469836
    },
    {
      "epoch": "2026-04-05T14:00:03.000384Z",
      "apogee_km": 484.2575218209795,
      "perigee_km": 482.159596802765,
      "latitude_deg": 38.09578970168862,
      "longitude_deg": 172.06494753478938,
      "height_km": 486.2652484961876,
      "semi_major_axis_km": 6861.345559311872,
      "eccentricity": 0.00015288,
      "inclination_deg": 43.0026,
      "raan_deg": 159.2445,
      "arg_perigee_deg": 264.2794,
      "mean_anomaly_deg": 160.0995,
      "mean_motion_rev_day": 15.27526747
    },
    {
      "epoch": "2026-04-05T16:00:03.000096Z",
      "apogee_km": 484.2873552180172,
      "perigee_km": 482.09721890958735,
      "latitude_deg": 11.406265314245324,
      "longitude_deg": -107.63133248747508,
      "height_km": 482.48958829963647,
      "semi_major_axis_km": 6861.329287063802,
      "eccentricity": 0.0001596,
      "inclination_deg": 43.0026,
      "raan_deg": 158.7736,
      "arg_perigee_deg": 268.2713,
      "mean_anomaly_deg": 254.9081,
      "mean_motion_rev_day": 15.27532181
    },
    {
      "epoch": "2026-04-06T05:24:47.874240Z",
      "apogee_km": 484.3067452377236,
      "perigee_km": 481.81709059836794,
      "latitude_deg": -2.240461749298406e-06,
      "longitude_deg": -120.10323378691604,
      "height_km": 482.69976439895595,
      "semi_major_axis_km": 6861.1989179180455,
      "eccentricity": 0.00018143,
      "inclination_deg": 43.0036,
      "raan_deg": 155.6161,
      "arg_perigee_deg": 276.4389,
      "mean_anomaly_deg": 83.6256,
      "mean_motion_rev_day": 15.27575718
    },
    {
      "epoch": "2026-04-07T03:22:59.225664Z",
      "apogee_km": 484.1431939537315,
      "perigee_km": 481.91139443211614,
      "latitude_deg": 4.7848934554418614e-05,
      "longitude_deg": -95.72284875033561,
      "height_km": 482.82222228341516,
      "semi_major_axis_km": 6861.164294192923,
      "eccentricity": 0.00016264,
      "inclination_deg": 43.0031,
      "raan_deg": 150.446,
      "arg_perigee_deg": 269.0909,
      "mean_anomaly_deg": 90.9757,
      "mean_motion_rev_day": 15.27587281
    }
  ]
}